{
  "norad_id": 67708,
  "name": "STARLINK-36287",
  "history": [
    {
      "epoch": "2026-03-28T22:00:01.999584Z",
      "apogee_km": 438.7178817257154,
      "perigee_km": 435.85404099735115,
      "latitude_deg": -67.94055801594762,
      "longitude_deg": -154.26543846798532,
      "height_km": 464.3192866038079,
      "semi_major_axis_km": 6815.4229613615325,
      "eccentricity": 0.0002101,
      "inclination_deg": 97.2846,
      "raan_deg": 200.3556,
      "arg_perigee_deg": 81.9227,
      "mean_anomaly_deg": 167.0126,
      "mean_motion_rev_day": 15.42991531
    },
    {
      "epoch": "2026-03-29T04:00:01.999584Z",
      "apogee_km": 441.9509559970402,
      "perigee_km": 439.1634738019893,
      "latitude_deg": -16.358281612532053,
      "longitude_deg": 131.88225529420444,
      "height_km": 448.0747778262034,
      "semi_major_axis_km": 6818.694214899514,
      "eccentricity": 0.0002044,
      "inclination_deg": 97.2848,
      "raan_deg": 200.6057,
      "arg_perigee_deg": 67.7725,
      "mean_anomaly_deg": 128.4835,
      "mean_motion_rev_day": 15.41881294
    },
    {
      "epoch": "2026-03-30T04:00:01.999584Z",
      "apogee_km": 454.21329401253934,
      "perigee_km": 451.77731223324554,
      "latitude_deg": -24.089990819138215,
      "longitude_deg": -42.71082127705438,
      "height_km": 462.4510130361232,
      "semi_major_axis_km": 6831.132303122892,
      "eccentricity": 0.0001783,
      "inclination_deg": 97.2853,
      "raan_deg": 201.6012,
      "arg_perigee_deg": 79.7736,
      "mean_anomaly_deg": 256.2006,
      "mean_motion_rev_day": 15.37672038
    },
    {
      "epoch": "2026-03-30T06:00:02.000160Z",
      "apogee_km": 455.1672410508336,
      "perigee_km": 452.90811417193527,
      "latitude_deg": 75.13674198191593,
      "longitude_deg": -104.59180080397599,
      "height_km": 465.7849248987631,
      "semi_major_axis_km": 6832.174677611384,
      "eccentricity": 0.00016533,
      "inclination_deg": 97.2854,
      "raan_deg": 201.6843,
      "arg_perigee_deg": 64.8178,
      "mean_anomaly_deg": 12.1133,
      "mean_motion_rev_day": 15.37320151
    },
    {
      "epoch": "2026-03-30T14:00:03.000384Z",
      "apogee_km": 458.4826841582317,
      "perigee_km": 455.155290884386,
      "latitude_deg": 59.60844576919916,
      "longitude_deg": -3.4510594856110615,
      "height_km": 465.7474402763188,
      "semi_major_axis_km": 6834.955987521309,
      "eccentricity": 0.00024341,
      "inclination_deg": 97.2859,
      "raan_deg": 202.0141,
      "arg_perigee_deg": 77.7355,
      "mean_anomaly_deg": 41.9373,
      "mean_motion_rev_day": 15.36381887
    },
    {
      "epoch": "2026-03-30T22:00:00.999936Z",
      "apogee_km": 463.73705965029694,
      "perigee_km": 461.79396970002927,
      "latitude_deg": 19.026608655712085,
      "longitude_deg": -133.4532094157459,
      "height_km": 465.5641154557119,
      "semi_major_axis_km": 6840.902514675163,
      "eccentricity": 0.00014202,
      "inclination_deg": 97.2857,
      "raan_deg": 202.3396,
      "arg_perigee_deg": 59.4228,
      "mean_anomaly_deg": 101.3714,
      "mean_motion_rev_day": 15.34379048
    },
    {
      "epoch": "2026-03-31T20:00:01.999008Z",
      "apogee_km": 466.4129752641311,
      "perigee_km": 464.8389097873496,
      "latitude_deg": 1.4508433005375718,
      "longitude_deg": -105.78418082105728,
      "height_km": 468.8173354869869,
      "semi_major_axis_km": 6843.76294252574,
      "eccentricity": 0.000115,
      "inclination_deg": 97.286,
      "raan_deg": 203.2447,
      "arg_perigee_deg": 69.4272,
      "mean_anomaly_deg": 108.9829,
      "mean_motion_rev_day": 15.33417182
    },
    {
      "epoch": "2026-04-01T20:00:01.999008Z",
      "apogee_km": 466.3664078720685,
      "perigee_km": 464.7677186028959,
      "latitude_deg": -64.04618044675246,
      "longitude_deg": 89.17444239858891,
      "height_km": 490.7626461913489,
      "semi_major_axis_km": 6843.704063237482,
      "eccentricity": 0.0001168,
      "inclination_deg": 97.2865,
      "raan_deg": 204.2294,
      "arg_perigee_deg": 84.8549,
      "mean_anomaly_deg": 210.3339,
      "mean_motion_rev_day": 15.33436971
    },
    {
      "epoch": "2026-04-02T20:00:01.999008Z",
      "apogee_km": 466.60115262583895,
      "perigee_km": 464.66573434442216,
      "latitude_deg": 51.54931241310927,
      "longitude_deg": 64.81561455104993,
      "height_km": 473.52899120922564,
      "semi_major_axis_km": 6843.77044348513,
      "eccentricity": 0.0001414,
      "inclination_deg": 97.2861,
      "raan_deg": 205.2148,
      "arg_perigee_deg": 111.8936,
      "mean_anomaly_deg": 300.1536,
      "mean_motion_rev_day": 15.33414661
    },
    {
      "epoch": "2026-04-02T22:00:01.999584Z",
      "apogee_km": 466.5156134230565,
      "perigee_km": 464.80274811493473,
      "latitude_deg": 27.982273507496735,
      "longitude_deg": -132.09571204873512,
      "height_km": 468.63067099586544,
      "semi_major_axis_km": 6843.796180768995,
      "eccentricity": 0.00012514,
      "inclination_deg": 97.2861,
      "raan_deg": 205.2975,
      "arg_perigee_deg": 108.7405,
      "mean_anomaly_deg": 43.0647,
      "mean_motion_rev_day": 15.33406011
    },
    {
      "epoch": "2026-04-03T20:00:01.999008Z",
      "apogee_km": 466.34903691320505,
      "perigee_km": 465.02407267299805,
      "latitude_deg": 11.14492492397928,
      "longitude_deg": -104.53308518776225,
      "height_km": 467.7942593118204,
      "semi_major_axis_km": 6843.823554793102,
      "eccentricity": 9.68e-05,
      "inclination_deg": 97.286,
      "raan_deg": 206.2019,
      "arg_perigee_deg": 100.0424,
      "mean_anomaly_deg": 68.6593,
      "mean_motion_rev_day": 15.33396811
    },
    {
      "epoch": "2026-04-04T20:19:30.800928Z",
      "apogee_km": 466.3043598573013,
      "perigee_km": 464.7029479442881,
      "latitude_deg": -3.235040668846739e-05,
      "longitude_deg": 69.16119300384047,
      "height_km": 468.7316134980032,
      "semi_major_axis_km": 6843.640653900795,
      "eccentricity": 0.000117,
      "inclination_deg": 97.2857,
      "raan_deg": 207.2005,
      "arg_perigee_deg": 98.4559,
      "mean_anomaly_deg": 261.6816,
      "mean_motion_rev_day": 15.33458283
    },
    {
      "epoch": "2026-04-05T07:17:17.018016Z",
      "apogee_km": 466.4283966107323,
      "perigee_km": 464.5874561255396,
      "latitude_deg": 9.031491671544481e-05,
      "longitude_deg": -95.2789222454895,
      "height_km": 469.1284330610716,
      "semi_major_axis_km": 6843.644926368136,
      "eccentricity": 0.0001345,
      "inclination_deg": 97.2871,
      "raan_deg": 207.6532,
      "arg_perigee_deg": 123.6612,
      "mean_anomaly_deg": 236.476,
      "mean_motion_rev_day": 15.33456847
    },
    {
      "epoch": "2026-04-05T18:15:02.919744Z",
      "apogee_km": 466.03993421511404,
      "perigee_km": 464.7574556258851,
      "latitude_deg": -3.006288657437731e-05,
      "longitude_deg": 100.27711087929171,
      "height_km": 468.65505299869193,
      "semi_major_axis_km": 6843.535694920499,
      "eccentricity": 9.37e-05,
      "inclination_deg": 97.2854,
      "raan_deg": 208.1007,
      "arg_perigee_deg": 103.1315,
      "mean_anomaly_deg": 257.0032,
      "mean_motion_rev_day": 15.33493561
    },
    {
      "epoch": "2026-04-06T05:12:49.277664Z",
      "apogee_km": 466.9873704156762,
      "perigee_km": 463.9808307937583,
      "latitude_deg": -8.128681147149732e-05,
      "longitude_deg": -64.1671709439128,
      "height_km": 468.427009929369,
      "semi_major_axis_km": 6843.621100604717,
      "eccentricity": 0.00021966,
      "inclination_deg": 97.286,
      "raan_deg": 208.5498,
      "arg_perigee_deg": 83.6794,
      "mean_anomaly_deg": 276.4698,
      "mean_motion_rev_day": 15.33464855
    },
    {
      "epoch": "2026-04-07T20:22:00.526080Z",
      "apogee_km": 466.19987507800215,
      "perigee_km": 464.7832439661797,
      "latitude_deg": -3.486642042923301e-05,
      "longitude_deg": 68.53698863460941,
      "height_km": 469.1631520692044,
      "semi_major_axis_km": 6843.628559522091,
      "eccentricity": 0.0001035,
      "inclination_deg": 97.2868,
      "raan_deg": 210.1588,
      "arg_perigee_deg": 142.3032,
      "mean_anomaly_deg": 217.8283,
      "mean_motion_rev_day": 15.33462348
    },
    {
      "epoch": "2026-04-08T13:35:39.485472Z",
      "apogee_km": 466.21414955084583,
      "perigee_km": 464.8593758927782,
      "latitude_deg": -2.1901362867671735e-05,
      "longitude_deg": 170.12684617097227,
      "height_km": 468.77100779309956,
      "semi_major_axis_km": 6843.673762721812,
      "eccentricity": 9.898e-05,
      "inclination_deg": 97.2856,
      "raan_deg": 210.8685,
      "arg_perigee_deg": 100.5255,
      "mean_anomaly_deg": 259.6099,
      "mean_motion_rev_day": 15.33447155
    },
    {
      "epoch": "2026-04-09T19:21:02.555712Z",
      "apogee_km": 465.87932189684307,
      "perigee_km": 465.148419983826,
      "latitude_deg": -4.312230313294685e-06,
      "longitude_deg": 83.7799619811307,
      "height_km": 468.8046763514971,
      "semi_major_axis_km": 6843.650870940334,
      "eccentricity": 5.34e-05,
      "inclination_deg": 97.2827,
      "raan_deg": 212.0898,
      "arg_perigee_deg": 119.3989,
      "mean_anomaly_deg": 240.7307,
      "mean_motion_rev_day": 15.33454849
    }
  ]
}